{"fetched_at":"2026-07-07T18:29:04.699Z","source":"https://celestrak.org/NORAD/elements/gp.php?GROUP=kuiper&FORMAT=JSON","constellation":"kuiper","records":[{"OBJECT_NAME":"KUIPER-00080","OBJECT_ID":"2025-151M","EPOCH":"2026-07-06T05:47:17.264256","CLASSIFICATION_TYPE":"U","MEAN_MOTION":14.79932521,"ECCENTRICITY":0.00007391,"INCLINATION":51.8986,"RA_OF_ASC_NODE":136.3301,"ARG_OF_PERICENTER":95.7698,"MEAN_ANOMALY":264.3349,"EPHEMERIS_TYPE":0,"NORAD_CAT_ID":64827,"ELEMENT_SET_NO":999,"REV_AT_EPOCH":5286,"BSTAR":0.00054682332,"MEAN_MOTION_DOT":0.0000395,"MEAN_MOTION_DDOT":0},{"OBJECT_NAME":"KUIPER-00082","OBJECT_ID":"2025-151N","EPOCH":"2026-07-06T23:07:45.726816","CLASSIFICATION_TYPE":"U","MEAN_MOTION":14.79930434,"ECCENTRICITY":0.0000807,"INCLINATION":51.9006,"RA_OF_ASC_NODE":120.6856,"ARG_OF_PERICENTER":92.6057,"MEAN_ANOMALY":267.4998,"EPHEMERIS_TYPE":0,"NORAD_CAT_ID":64828,"ELEMENT_SET_NO":999,"REV_AT_EPOCH":5314,"BSTAR":0.000093931,"MEAN_MOTION_DOT":0.00000495,"MEAN_MOTION_DDOT":0},{"OBJECT_NAME":"KUIPER-00083","OBJECT_ID":"2025-151P","EPOCH":"2026-07-06T05:06:26.621568","CLASSIFICATION_TYPE":"U","MEAN_MOTION":14.79934772,"ECCENTRICITY":0.00007807,"INCLINATION":51.8997,"RA_OF_ASC_NODE":131.4912,"ARG_OF_PERICENTER":94.2995,"MEAN_ANOMALY":265.8056,"EPHEMERIS_TYPE":0,"NORAD_CAT_ID":64829,"ELEMENT_SET_NO":999,"REV_AT_EPOCH":5411,"BSTAR":0.00023341103,"MEAN_MOTION_DOT":0.00001559,"MEAN_MOTION_DDOT":0},{"OBJECT_NAME":"KUIPER-00084","OBJECT_ID":"2025-151Q","EPOCH":"2026-07-06T01:36:25.396704","CLASSIFICATION_TYPE":"U","MEAN_MOTION":14.79930659,"ECCENTRICITY":0.00006571,"INCLINATION":51.8999,"RA_OF_ASC_NODE":142.1211,"ARG_OF_PERICENTER":78.2835,"MEAN_ANOMALY":281.8202,"EPHEMERIS_TYPE":0,"NORAD_CAT_ID":64830,"ELEMENT_SET_NO":999,"REV_AT_EPOCH":5276,"BSTAR":0.00031038329,"MEAN_MOTION_DOT":0.00002146,"MEAN_MOTION_DDOT":0},{"OBJECT_NAME":"KUIPER-00085","OBJECT_ID":"2025-151R","EPOCH":"2026-07-06T02:52:14.169216","CLASSIFICATION_TYPE":"U","MEAN_MOTION":14.79931916,"ECCENTRICITY":0.00007556,"INCLINATION":51.9004,"RA_OF_ASC_NODE":124.4628,"ARG_OF_PERICENTER":98.6128,"MEAN_ANOMALY":261.492,"EPHEMERIS_TYPE":0,"NORAD_CAT_ID":64831,"ELEMENT_SET_NO":999,"REV_AT_EPOCH":5301,"BSTAR":0.000091566159,"MEAN_MOTION_DOT":0.00000477,"MEAN_MOTION_DDOT":0},{"OBJECT_NAME":"KUIPER-00086","OBJECT_ID":"2025-151S","EPOCH":"2026-07-06T00:59:27.337632","CLASSIFICATION_TYPE":"U","MEAN_MOTION":14.79934801,"ECCENTRICITY":0.00007691,"INCLINATION":51.8995,"RA_OF_ASC_NODE":134.7586,"ARG_OF_PERICENTER":91.3035,"MEAN_ANOMALY":268.8015,"EPHEMERIS_TYPE":0,"NORAD_CAT_ID":64832,"ELEMENT_SET_NO":999,"REV_AT_EPOCH":5286,"BSTAR":0.00058948336,"MEAN_MOTION_DOT":0.00004276,"MEAN_MOTION_DDOT":0},{"OBJECT_NAME":"KUIPER-00087","OBJECT_ID":"2025-151T","EPOCH":"2026-07-07T03:22:31.772928","CLASSIFICATION_TYPE":"U","MEAN_MOTION":14.79927353,"ECCENTRICITY":0.0000887,"INCLINATION":51.8976,"RA_OF_ASC_NODE":112.3638,"ARG_OF_PERICENTER":89.9819,"MEAN_ANOMALY":270.1245,"EPHEMERIS_TYPE":0,"NORAD_CAT_ID":64833,"ELEMENT_SET_NO":999,"REV_AT_EPOCH":5326,"BSTAR":0.00010116,"MEAN_MOTION_DOT":0.0000055,"MEAN_MOTION_DDOT":0},{"OBJECT_NAME":"KUIPER-00089","OBJECT_ID":"2025-151U","EPOCH":"2026-07-06T02:56:06.605952","CLASSIFICATION_TYPE":"U","MEAN_MOTION":14.79935258,"ECCENTRICITY":0.00007391,"INCLINATION":51.8981,"RA_OF_ASC_NODE":121.8856,"ARG_OF_PERICENTER":100.7376,"MEAN_ANOMALY":259.367,"EPHEMERIS_TYPE":0,"NORAD_CAT_ID":64834,"ELEMENT_SET_NO":999,"REV_AT_EPOCH":5305,"BSTAR":0.0003535731,"MEAN_MOTION_DOT":0.00002475,"MEAN_MOTION_DDOT":0},{"OBJECT_NAME":"KUIPER-00090","OBJECT_ID":"2025-151V","EPOCH":"2026-07-07T03:26:24.931104","CLASSIFICATION_TYPE":"U","MEAN_MOTION":14.79922315,"ECCENTRICITY":0.0000814,"INCLINATION":51.8961,"RA_OF_ASC_NODE":109.8772,"ARG_OF_PERICENTER":91.5815,"MEAN_ANOMALY":268.5241,"EPHEMERIS_TYPE":0,"NORAD_CAT_ID":64835,"ELEMENT_SET_NO":999,"REV_AT_EPOCH":5330,"BSTAR":0.000023147,"MEAN_MOTION_DOT":-4.5e-7,"MEAN_MOTION_DDOT":0},{"OBJECT_NAME":"KUIPER-00091","OBJECT_ID":"2025-151W","EPOCH":"2026-07-06T04:37:13.691712","CLASSIFICATION_TYPE":"U","MEAN_MOTION":14.79927353,"ECCENTRICITY":0.00007988,"INCLINATION":51.9005,"RA_OF_ASC_NODE":119.0915,"ARG_OF_PERICENTER":80.7517,"MEAN_ANOMALY":279.3536,"EPHEMERIS_TYPE":0,"NORAD_CAT_ID":64836,"ELEMENT_SET_NO":999,"REV_AT_EPOCH":5309,"BSTAR":0.00015327879,"MEAN_MOTION_DOT":0.00000947,"MEAN_MOTION_DDOT":0},{"OBJECT_NAME":"KUIPER-00092","OBJECT_ID":"2025-151X","EPOCH":"2026-07-06T01:11:06.186624","CLASSIFICATION_TYPE":"U","MEAN_MOTION":14.79934554,"ECCENTRICITY":0.00007277,"INCLINATION":51.8987,"RA_OF_ASC_NODE":127.215,"ARG_OF_PERICENTER":89.273,"MEAN_ANOMALY":270.8315,"EPHEMERIS_TYPE":0,"NORAD_CAT_ID":64837,"ELEMENT_SET_NO":999,"REV_AT_EPOCH":5418,"BSTAR":0.00026819209,"MEAN_MOTION_DOT":0.00001824,"MEAN_MOTION_DDOT":0},{"OBJECT_NAME":"KUIPER-00093","OBJECT_ID":"2025-151Y","EPOCH":"2026-07-06T05:58:56.559072","CLASSIFICATION_TYPE":"U","MEAN_MOTION":14.7993504,"ECCENTRICITY":0.00007882,"INCLINATION":51.8988,"RA_OF_ASC_NODE":128.8068,"ARG_OF_PERICENTER":82.7762,"MEAN_ANOMALY":277.329,"EPHEMERIS_TYPE":0,"NORAD_CAT_ID":64838,"ELEMENT_SET_NO":999,"REV_AT_EPOCH":5296,"BSTAR":0.00026411402,"MEAN_MOTION_DOT":0.00001793,"MEAN_MOTION_DDOT":0},{"OBJECT_NAME":"KUIPER-00094","OBJECT_ID":"2025-151Z","EPOCH":"2026-07-07T02:35:36.885984","CLASSIFICATION_TYPE":"U","MEAN_MOTION":14.79896434,"ECCENTRICITY":0.0000647,"INCLINATION":51.9037,"RA_OF_ASC_NODE":80.095,"ARG_OF_PERICENTER":95.1751,"MEAN_ANOMALY":264.9285,"EPHEMERIS_TYPE":0,"NORAD_CAT_ID":64839,"ELEMENT_SET_NO":999,"REV_AT_EPOCH":5372,"BSTAR":-0.0013444,"MEAN_MOTION_DOT":-0.00010445,"MEAN_MOTION_DDOT":0},{"OBJECT_NAME":"KUIPER-00081","OBJECT_ID":"2025-171A","EPOCH":"2026-07-06T15:24:30.485664","CLASSIFICATION_TYPE":"U","MEAN_MOTION":14.79924088,"ECCENTRICITY":0.0000761,"INCLINATION":51.9004,"RA_OF_ASC_NODE":342.0663,"ARG_OF_PERICENTER":111.4369,"MEAN_ANOMALY":248.6674,"EPHEMERIS_TYPE":0,"NORAD_CAT_ID":65132,"ELEMENT_SET_NO":999,"REV_AT_EPOCH":5065,"BSTAR":-0.000043466,"MEAN_MOTION_DOT":-0.00000552,"MEAN_MOTION_DDOT":0},{"OBJECT_NAME":"KUIPER-00088","OBJECT_ID":"2025-171B","EPOCH":"2026-07-06T16:34:33.851712","CLASSIFICATION_TYPE":"U","MEAN_MOTION":14.79925952,"ECCENTRICITY":0.0001285,"INCLINATION":51.9007,"RA_OF_ASC_NODE":359.3548,"ARG_OF_PERICENTER":93.3983,"MEAN_ANOMALY":266.7126,"EPHEMERIS_TYPE":0,"NORAD_CAT_ID":65133,"ELEMENT_SET_NO":999,"REV_AT_EPOCH":5041,"BSTAR":-0.00027348,"MEAN_MOTION_DOT":-0.00002305,"MEAN_MOTION_DDOT":0},{"OBJECT_NAME":"KUIPER-00095","OBJECT_ID":"2025-171C","EPOCH":"2026-07-06T17:05:38.616864","CLASSIFICATION_TYPE":"U","MEAN_MOTION":14.79923951,"ECCENTRICITY":0.0000589,"INCLINATION":51.8981,"RA_OF_ASC_NODE":339.3072,"ARG_OF_PERICENTER":97.7478,"MEAN_ANOMALY":262.3551,"EPHEMERIS_TYPE":0,"NORAD_CAT_ID":65134,"ELEMENT_SET_NO":999,"REV_AT_EPOCH":5069,"BSTAR":-0.000096541,"MEAN_MOTION_DOT":-0.00000957,"MEAN_MOTION_DDOT":0}]}
