KUIPER-00080            
1 64827U 25151M   26187.24117204  .00003950  00000+0  54682-3 0  9990
2 64827  51.8986 136.3301 0000739  95.7698 264.3349 14.79932521 52861
KUIPER-00082            
1 64828U 25151N   26187.96372369  .00000495  00000+0  93931-4 0  9997
2 64828  51.9006 120.6856 0000807  92.6057 267.4998 14.79930434 53145
KUIPER-00083            
1 64829U 25151P   26187.21280812  .00001559  00000+0  23341-3 0  9996
2 64829  51.8997 131.4912 0000780  94.2995 265.8056 14.79934772 54110
KUIPER-00084            
1 64830U 25151Q   26187.06696061  .00002146  00000+0  31038-3 0  9993
2 64830  51.8999 142.1211 0000657  78.2835 281.8202 14.79930659 52763
KUIPER-00085            
1 64831U 25151R   26187.11960844  .00000477  00000+0  91566-4 0  9991
2 64831  51.9004 124.4628 0000755  98.6128 261.4920 14.79931916 53014
KUIPER-00086            
1 64832U 25151S   26187.04128863  .00004276  00000+0  58948-3 0  9998
2 64832  51.8995 134.7586 0000769  91.3035 268.8015 14.79934801 52866
KUIPER-00087            
1 64833U 25151T   26188.14064552  .00000550  00000+0  10116-3 0  9991
2 64833  51.8976 112.3638 0000887  89.9819 270.1245 14.79927353 53260
KUIPER-00089            
1 64834U 25151U   26187.12229868  .00002475  00000+0  35357-3 0  9994
2 64834  51.8981 121.8856 0000739 100.7376 259.3670 14.79935258 53051
KUIPER-00090            
1 64835U 25151V   26188.14334411 -.00000045  00000+0  23147-4 0  9996
2 64835  51.8961 109.8772 0000814  91.5815 268.5241 14.79922315 53306
KUIPER-00091            
1 64836U 25151W   26187.19251958  .00000947  00000+0  15328-3 0  9996
2 64836  51.9005 119.0915 0000798  80.7517 279.3536 14.79927353 53099
KUIPER-00092            
1 64837U 25151X   26187.04937716  .00001824  00000+0  26819-3 0  9996
2 64837  51.8987 127.2150 0000727  89.2730 270.8315 14.79934554 54186
KUIPER-00093            
1 64838U 25151Y   26187.24926573  .00001793  00000+0  26411-3 0  9991
2 64838  51.8988 128.8068 0000788  82.7762 277.3290 14.79935040 52962
KUIPER-00094            
1 64839U 25151Z   26188.10806581 -.00010445  00000+0 -13444-2 0  9991
2 64839  51.9037  80.0950 0000647  95.1751 264.9285 14.79896434 53722
KUIPER-00081            
1 65132U 25171A   26187.64201951 -.00000552  00000+0 -43466-4 0  9995
2 65132  51.9004 342.0663 0000761 111.4369 248.6674 14.79924088 50656
KUIPER-00088            
1 65133U 25171B   26187.69066958 -.00002305  00000+0 -27348-3 0  9995
2 65133  51.9007 359.3548 0001285  93.3983 266.7126 14.79925952 50413
KUIPER-00095            
1 65134U 25171C   26187.71225251 -.00000957  00000+0 -96541-4 0  9995
2 65134  51.8981 339.3072 0000589  97.7478 262.3551 14.79923951 50698
